SAUDISAT 1C (SO-50)     
1 27607U 02058C   26196.94834782  .00000353  00000+0  59747-4 0  9992
2 27607  64.5518  39.9948 0074507 257.1241 102.1534 14.83099100268726
SAUDISAT 2              
1 28371U 04025F   26196.94702248  .00000091  00000+0  31378-4 0  9997
2 28371  98.5521 197.6738 0024111 205.8266 154.1730 14.56698464169934
SAUDISAT 3              
1 31118U 07012B   26196.81947157  .00000095  00000+0  23504-4 0  9991
2 31118  98.1467 147.2412 0015634 132.8721 227.3802 14.71440485 31955
PISAT                   
1 41784U 16059B   26196.95644709  .00000435  00000+0  81603-4 0  9996
2 41784  97.8191 196.1749 0030459 112.4897 247.9539 14.69030442523968
FLYING LAPTOP           
1 42831U 17042G   26196.97986799  .00001986  00000+0  15820-3 0  9992
2 42831  97.4805 351.4297 0019668  30.0064 330.2284 15.01316232490770
SALSAT                  
1 46495U 20068K   26196.92204374  .00003996  00000+0  13964-3 0  9991
2 46495  97.8855 201.7454 0009261 190.1996 169.9057 15.30178067319758
